CCSDS_OMM_VERS = 2.0
CREATION_DATE  = 
ORIGINATOR     = 

OBJECT_NAME    = HTV-X1
OBJECT_ID      = 2025-241A
CENTER_NAME    = EARTH
REF_FRAME      = TEME
TIME_SYSTEM    = UTC
MEAN_ELEMENT_THEORY = SGP/SGP4

EPOCH          = 2026-04-05T12:25:05.072448
MEAN_MOTION    = 15.32548989
ECCENTRICITY   = .0007379
INCLINATION    = 51.6363
RA_OF_ASC_NODE = 303.7411
ARG_OF_PERICENTER = 276.3697
MEAN_ANOMALY   = 83.6444

EPHEMERIS_TYPE = 0
CLASSIFICATION_TYPE = U
NORAD_CAT_ID   = 66174
ELEMENT_SET_NO = 999
REV_AT_EPOCH   = 2505
BSTAR          = .22107E-3
MEAN_MOTION_DOT = .6691E-4
MEAN_MOTION_DDOT = 0

CCSDS_OMM_VERS = 2.0
CREATION_DATE  = 
ORIGINATOR     = 

OBJECT_NAME    = SZ-21 MODULE
OBJECT_ID      = 2025-246C
CENTER_NAME    = EARTH
REF_FRAME      = TEME
TIME_SYSTEM    = UTC
MEAN_ELEMENT_THEORY = SGP/SGP4

EPOCH          = 2026-04-05T05:22:30.662400
MEAN_MOTION    = 15.70779178
ECCENTRICITY   = .0003444
INCLINATION    = 41.4750
RA_OF_ASC_NODE = 39.7632
ARG_OF_PERICENTER = 230.9448
MEAN_ANOMALY   = 129.1088

EPHEMERIS_TYPE = 0
CLASSIFICATION_TYPE = U
NORAD_CAT_ID   = 66515
ELEMENT_SET_NO = 999
REV_AT_EPOCH   = 2224
BSTAR          = .40162E-3
MEAN_MOTION_DOT = .51413E-3
MEAN_MOTION_DDOT = 0

CCSDS_OMM_VERS = 2.0
CREATION_DATE  = 
ORIGINATOR     = 

OBJECT_NAME    = SHENZHOU-22
OBJECT_ID      = 2025-272A
CENTER_NAME    = EARTH
REF_FRAME      = TEME
TIME_SYSTEM    = UTC
MEAN_ELEMENT_THEORY = SGP/SGP4

EPOCH          = 2026-04-05T07:47:20.916096
MEAN_MOTION    = 15.61942740
ECCENTRICITY   = .0003558
INCLINATION    = 41.4682
RA_OF_ASC_NODE = 45.9319
ARG_OF_PERICENTER = 129.2727
MEAN_ANOMALY   = 230.8429

EPHEMERIS_TYPE = 0
CLASSIFICATION_TYPE = U
NORAD_CAT_ID   = 66645
ELEMENT_SET_NO = 999
REV_AT_EPOCH   = 28204
BSTAR          = .37223E-3
MEAN_MOTION_DOT = .33172E-3
MEAN_MOTION_DDOT = 0

CCSDS_OMM_VERS = 2.0
CREATION_DATE  = 
ORIGINATOR     = 

OBJECT_NAME    = SOYUZ-MS 28
OBJECT_ID      = 2025-275A
CENTER_NAME    = EARTH
REF_FRAME      = TEME
TIME_SYSTEM    = UTC
MEAN_ELEMENT_THEORY = SGP/SGP4

EPOCH          = 2026-04-05T13:16:46.803936
MEAN_MOTION    = 15.48786980
ECCENTRICITY   = .0006351
INCLINATION    = 51.6328
RA_OF_ASC_NODE = 299.5432
ARG_OF_PERICENTER = 274.8255
MEAN_ANOMALY   = 85.2008

EPHEMERIS_TYPE = 0
CLASSIFICATION_TYPE = U
NORAD_CAT_ID   = 66664
ELEMENT_SET_NO = 999
REV_AT_EPOCH   = 56060
BSTAR          = .1642E-3
MEAN_MOTION_DOT = .8543E-4
MEAN_MOTION_DDOT = 0

CCSDS_OMM_VERS = 2.0
CREATION_DATE  = 
ORIGINATOR     = 

OBJECT_NAME    = DUPLEX
OBJECT_ID      = 1998-067XS
CENTER_NAME    = EARTH
REF_FRAME      = TEME
TIME_SYSTEM    = UTC
MEAN_ELEMENT_THEORY = SGP/SGP4

EPOCH          = 2026-04-05T06:50:09.612672
MEAN_MOTION    = 15.58054408
ECCENTRICITY   = .0003389
INCLINATION    = 51.6286
RA_OF_ASC_NODE = 296.2512
ARG_OF_PERICENTER = 238.8669
MEAN_ANOMALY   = 121.1991

EPHEMERIS_TYPE = 0
CLASSIFICATION_TYPE = U
NORAD_CAT_ID   = 66906
ELEMENT_SET_NO = 999
REV_AT_EPOCH   = 1927
BSTAR          = .45585E-3
MEAN_MOTION_DOT = .34554E-3
MEAN_MOTION_DDOT = 0

CCSDS_OMM_VERS = 2.0
CREATION_DATE  = 
ORIGINATOR     = 

OBJECT_NAME    = ISS OBJECT XT
OBJECT_ID      = 1998-067XT
CENTER_NAME    = EARTH
REF_FRAME      = TEME
TIME_SYSTEM    = UTC
MEAN_ELEMENT_THEORY = SGP/SGP4

EPOCH          = 2026-04-05T05:52:50.351808
MEAN_MOTION    = 15.80701456
ECCENTRICITY   = .0007348
INCLINATION    = 51.6220
RA_OF_ASC_NODE = 289.1848
ARG_OF_PERICENTER = 254.3263
MEAN_ANOMALY   = 105.6928

EPHEMERIS_TYPE = 0
CLASSIFICATION_TYPE = U
NORAD_CAT_ID   = 66907
ELEMENT_SET_NO = 999
REV_AT_EPOCH   = 1936
BSTAR          = .16178E-2
MEAN_MOTION_DOT = .329459E-2
MEAN_MOTION_DDOT = 0

CCSDS_OMM_VERS = 2.0
CREATION_DATE  = 
ORIGINATOR     = 

OBJECT_NAME    = ISS OBJECT XU
OBJECT_ID      = 1998-067XU
CENTER_NAME    = EARTH
REF_FRAME      = TEME
TIME_SYSTEM    = UTC
MEAN_ELEMENT_THEORY = SGP/SGP4

EPOCH          = 2026-04-05T13:20:22.791840
MEAN_MOTION    = 15.81261870
ECCENTRICITY   = .0007577
INCLINATION    = 51.6221
RA_OF_ASC_NODE = 287.5051
ARG_OF_PERICENTER = 255.7016
MEAN_ANOMALY   = 104.3145

EPHEMERIS_TYPE = 0
CLASSIFICATION_TYPE = U
NORAD_CAT_ID   = 66908
ELEMENT_SET_NO = 999
REV_AT_EPOCH   = 1941
BSTAR          = .14909E-2
MEAN_MOTION_DOT = .310882E-2
MEAN_MOTION_DDOT = 0

CCSDS_OMM_VERS = 2.0
CREATION_DATE  = 
ORIGINATOR     = 

OBJECT_NAME    = SILVERSAT
OBJECT_ID      = 1998-067XV
CENTER_NAME    = EARTH
REF_FRAME      = TEME
TIME_SYSTEM    = UTC
MEAN_ELEMENT_THEORY = SGP/SGP4

EPOCH          = 2026-04-05T13:00:23.126112
MEAN_MOTION    = 15.88922443
ECCENTRICITY   = .0009331
INCLINATION    = 51.6182
RA_OF_ASC_NODE = 285.8891
ARG_OF_PERICENTER = 262.9398
MEAN_ANOMALY   = 97.0546

EPHEMERIS_TYPE = 0
CLASSIFICATION_TYPE = U
NORAD_CAT_ID   = 66909
ELEMENT_SET_NO = 999
REV_AT_EPOCH   = 1943
BSTAR          = .17021E-2
MEAN_MOTION_DOT = .493552E-2
MEAN_MOTION_DDOT = .10205E-3

CCSDS_OMM_VERS = 2.0
CREATION_DATE  = 
ORIGINATOR     = 

OBJECT_NAME    = ISS OBJECT XW
OBJECT_ID      = 1998-067XW
CENTER_NAME    = EARTH
REF_FRAME      = TEME
TIME_SYSTEM    = UTC
MEAN_ELEMENT_THEORY = SGP/SGP4

EPOCH          = 2026-04-04T19:36:47.567808
MEAN_MOTION    = 15.78347512
ECCENTRICITY   = .00074492
INCLINATION    = 51.6195
RA_OF_ASC_NODE = 291.5715
ARG_OF_PERICENTER = 246.0581
MEAN_ANOMALY   = 113.9639

EPHEMERIS_TYPE = 0
CLASSIFICATION_TYPE = U
NORAD_CAT_ID   = 66910
ELEMENT_SET_NO = 999
REV_AT_EPOCH   = 1929
BSTAR          = .12620228E-2
MEAN_MOTION_DOT = .228077E-2
MEAN_MOTION_DDOT = 0

CCSDS_OMM_VERS = 2.0
CREATION_DATE  = 
ORIGINATOR     = 

OBJECT_NAME    = ISS OBJECT XX
OBJECT_ID      = 1998-067XX
CENTER_NAME    = EARTH
REF_FRAME      = TEME
TIME_SYSTEM    = UTC
MEAN_ELEMENT_THEORY = SGP/SGP4

EPOCH          = 2026-04-05T06:06:20.007072
MEAN_MOTION    = 16.00504805
ECCENTRICITY   = .001168
INCLINATION    = 51.6140
RA_OF_ASC_NODE = 285.4187
ARG_OF_PERICENTER = 268.8533
MEAN_ANOMALY   = 91.1139

EPHEMERIS_TYPE = 0
CLASSIFICATION_TYPE = U
NORAD_CAT_ID   = 66911
ELEMENT_SET_NO = 999
REV_AT_EPOCH   = 1940
BSTAR          = .21826E-2
MEAN_MOTION_DOT = .1178234E-1
MEAN_MOTION_DDOT = .72726E-3

CCSDS_OMM_VERS = 2.0
CREATION_DATE  = 
ORIGINATOR     = 

OBJECT_NAME    = ISS OBJECT XY
OBJECT_ID      = 1998-067XY
CENTER_NAME    = EARTH
REF_FRAME      = TEME
TIME_SYSTEM    = UTC
MEAN_ELEMENT_THEORY = SGP/SGP4

EPOCH          = 2026-04-05T05:58:08.658912
MEAN_MOTION    = 15.69674639
ECCENTRICITY   = .0005164
INCLINATION    = 51.6246
RA_OF_ASC_NODE = 292.2426
ARG_OF_PERICENTER = 247.0020
MEAN_ANOMALY   = 113.0432

EPHEMERIS_TYPE = 0
CLASSIFICATION_TYPE = U
NORAD_CAT_ID   = 66912
ELEMENT_SET_NO = 999
REV_AT_EPOCH   = 1931
BSTAR          = .11559E-2
MEAN_MOTION_DOT = .141961E-2
MEAN_MOTION_DDOT = 0

CCSDS_OMM_VERS = 2.0
CREATION_DATE  = 
ORIGINATOR     = 

OBJECT_NAME    = KNACKSAT-2
OBJECT_ID      = 1998-067XZ
CENTER_NAME    = EARTH
REF_FRAME      = TEME
TIME_SYSTEM    = UTC
MEAN_ELEMENT_THEORY = SGP/SGP4

EPOCH          = 2026-04-04T18:57:48.329280
MEAN_MOTION    = 15.54148205
ECCENTRICITY   = .00107207
INCLINATION    = 51.6331
RA_OF_ASC_NODE = 301.9471
ARG_OF_PERICENTER = 281.6024
MEAN_ANOMALY   = 78.3763

EPHEMERIS_TYPE = 0
CLASSIFICATION_TYPE = U
NORAD_CAT_ID   = 67683
ELEMENT_SET_NO = 999
REV_AT_EPOCH   = 884
BSTAR          = .75544083E-3
MEAN_MOTION_DOT = .4999E-3
MEAN_MOTION_DDOT = 0

